{
  "norad_id": 50205,
  "name": "STARLINK-3260",
  "history": [
    {
      "epoch": "2026-03-28T19:32:09.050496",
      "apogee_km": 541.0239402687985,
      "perigee_km": 538.7509541564223,
      "latitude_deg": 48.388474436108815,
      "longitude_deg": -1.3566105598583817,
      "semi_major_axis_km": 6918.0244472126105,
      "eccentricity": 0.00016428,
      "inclination_deg": 53.2161,
      "raan_deg": 123.2683,
      "arg_perigee_deg": 80.2877,
      "mean_anomaly_deg": 279.83,
      "mean_motion_rev_day": 15.08792871
    }
  ]
}